GPS BIIA-10 (PRN 32)    
1 20959U 90103A   13021.84111208  .00000073  00000-0  10000-3 0  8454
2 20959  54.4289 229.7916 0117485 335.3209  24.1805  2.00551110162279
GPS BIIA-14 (PRN 26)    
1 22014U 92039A   13022.13754110 -.00000052  00000-0  10000-3 0  6373
2 22014  56.1780 290.0042 0208345  69.5893 292.6804  2.00565823144019
GPS BIIA-15 (PRN 27)    
1 22108U 92058A   13022.24431578 -.00000090  00000-0  10000-3 0  5618
2 22108  56.2528 342.9123 0222386 304.0909  53.8135  2.00569776149196
GPS BIIA-21 (PRN 09)    
1 22700U 93042A   13021.23639701 -.00000089  00000-0  00000+0 0  8836
2 22700  56.4050 344.5238 0167961  93.8881 268.0348  2.00662157143333
GPS BIIA-22 (PRN 30)    
1 22779U 93054A   13021.01264612 -.00000052  00000-0  10000-3 0  5603
2 22779  55.1549  39.0802 0106182  92.6834 268.5801  2.00571304142087
GPS BIIA-23 (PRN 04)    
1 22877U 93068A   13022.40670351  .00000017  00000-0  10000-3 0  2407
2 22877  53.7301 164.6345 0102357  54.1341 306.7751  2.00556566141002
GPS BIIA-24 (PRN 06)    
1 23027U 94016A   13022.10911843 -.00000055  00000-0  10000-3 0  1985
2 23027  53.8591 101.2896 0076338 336.0501  23.6274  2.00561805138305
GPS BIIA-25 (PRN 03)    
1 23833U 96019A   13022.13059945 -.00000055  00000-0  10000-3 0  3964
2 23833  53.4751  96.7902 0157846  72.7114 289.0433  2.00563917123280
GPS BIIA-26 (PRN 10)    
1 23953U 96041A   13022.48984750  .00000078  00000-0  10000-3 0  8836
2 23953  54.1024 225.8283 0120844  44.7738 316.2451  2.00553804121083
GPS BIIR-2  (PRN 13)    
1 24876U 97035A   13021.99456464 -.00000054  00000-0  10000-3 0  3544
2 24876  56.3235 290.4053 0046533 120.2042 240.3065  2.00575830113609
GPS BIIA-28 (PRN 08)    
1 25030U 97067A   13022.12817836 -.00000082  00000-0  10000-3 0  3004
2 25030  57.1992 350.9378 0128480 195.9726 163.6246  2.00570920111503
GPS BIIR-3  (PRN 11)    
1 25933U 99055A   13021.74904555 -.00000012  00000-0  10000-3 0  7903
2 25933  50.9150 148.3167 0136455  65.2301 296.1483  2.00561373 97416
GPS BIIR-4  (PRN 20)    
1 26360U 00025A   13021.86525750  .00000077  00000-0  10000-3 0  8806
2 26360  53.2124 221.9290 0053572  72.8808 287.1946  2.00545706 93116
GPS BIIR-5  (PRN 28)    
1 26407U 00040A   13021.21423972 -.00000046  00000-0  10000-3 0  8310
2 26407  56.2544  47.9282 0188029 257.4655 100.4759  2.00568232 91779
GPS BIIR-6  (PRN 14)    
1 26605U 00071A   13021.80721358 -.00000053  00000-0  10000-3 0  8473
2 26605  55.9088 288.7866 0069337 245.5366 113.7868  2.00561512 89384
GPS BIIR-7  (PRN 18)    
1 26690U 01004A   13022.18070120  .00000075  00000-0  10000-3 0  7269
2 26690  53.1744 224.9831 0138225 238.6585 120.0286  2.00553370 87803
GPS BIIR-8  (PRN 16)    
1 27663U 03005A   13022.05058674 -.00000039  00000-0  10000-3 0  1578
2 27663  56.3474  47.5299 0068004 359.8422   0.2122  2.00576802 73155
GPS BIIR-9  (PRN 21)    
1 27704U 03010A   13021.59824650  .00000024  00000-0  10000-3 0   407
2 27704  53.3702 164.9205 0198754 235.2423 122.8420  2.00554058 71932
GPS BIIR-10 (PRN 22)    
1 28129U 03058A   13021.72694760  .00000074  00000-0  10000-3 0  6134
2 28129  53.0443 225.1666 0063338 244.9009 114.4892  2.00564122 66645
GPS BIIR-11 (PRN 19)    
1 28190U 04009A   13022.16661756 -.00000052  00000-0  10000-3 0  6077
2 28190  55.1078 110.0052 0087082  14.8376 345.4316  2.00565858 64826
GPS BIIR-12 (PRN 23)    
1 28361U 04023A   13021.95488425 -.00000046  00000-0  10000-3 0  4261
2 28361  54.8485 285.5458 0081871 194.8342 164.9803  2.00552498 62902
GPS BIIR-13 (PRN 02)    
1 28474U 04045A   13021.45643681  .00000024  00000-0  10000-3 0  3132
2 28474  53.7849 163.7222 0119794 206.8868 152.4573  2.00573162 60251
GPS BIIRM-1 (PRN 17)    
1 28874U 05038A   13022.31106804 -.00000051  00000-0  10000-3 0  5724
2 28874  55.2638 106.9994 0081615 231.4438 127.8451  2.00550877 53699
GPS BIIRM-2 (PRN 31)    
1 29486U 06042A   13021.92297103 -.00000088  00000-0  10000-3 0  9644
2 29486  56.1982 346.1045 0082685 312.6497  46.6395  2.00548858 46380
GPS BIIRM-3 (PRN 12)    
1 29601U 06052A   13021.36531354 -.00000045  00000-0  10000-3 0  9947
2 29601  56.3028  46.5055 0041283   4.8441 355.2530  2.00567218 45281
GPS BIIRM-4 (PRN 15)    
1 32260U 07047A   13020.67819676 -.00000053  00000-0  00000+0 0  7016
2 32260  53.9990 283.3512 0051910   4.1325 355.9630  2.00560946 38661
GPS BIIRM-5 (PRN 29)    
1 32384U 07062A   13021.49238491 -.00000055  00000-0  10000-3 0  7399
2 32384  55.2967 107.5317 0020318 293.1641  66.6438  2.00557934 37402
GPS BIIRM-6 (PRN 07)    
1 32711U 08012A   13022.08540146 -.00000089  00000-0  10000-3 0  4976
2 32711  55.9090 345.8707 0061207 195.1747 164.6410  2.00559432 35626
GPS BIIRM-8 (PRN 05)    
1 35752U 09043A   13021.55641253  .00000078  00000-0  10000-3 0  2516
2 35752  54.3988 224.7103 0030093  14.0699 346.0623  2.00578729 25195
GPS BIIF-1  (PRN 25)    
1 36585U 10022A   13022.40277192 -.00000039  00000-0  10000-3 0   675
2 36585  55.6646  44.3572 0018696  27.9836 332.1735  2.00571651 19451
GPS BIIF-2  (PRN 01)    
1 37753U 11036A   13021.78222658  .00000025  00000-0  00000+0 0  5298
2 37753  55.0149 164.7931 0014317  20.3237 339.7002  2.00559292 11128
GPS BIIF-3  (PRN 24)    
1 38833U 12053A   13022.26771777 -.00000091  00000-0  00000+0 0   764
2 38833  54.9663 344.3485 0005529 334.7456  25.2262  2.00559404  2194
